[{"OBJECT_NAME":"STARLINK-1954","OBJECT_ID":"2021-009H","EPOCH":"2026-03-09T23:20:25.352160","MEAN_MOTION":15.30849174,"ECCENTRICITY":0.00046184,"INCLINATION":53.0574,"RA_OF_ASC_NODE":8.8654,"ARG_OF_PERICENTER":103.3293,"MEAN_ANOMALY":256.8222,"EPHEMERIS_TYPE":0,"CLASSIFICATION_TYPE":"U","NORAD_CAT_ID":47555,"ELEMENT_SET_NO":999,"REV_AT_EPOCH":28100,"BSTAR":0.0022371791,"MEAN_MOTION_DOT":0.00067883,"MEAN_MOTION_DDOT":0},{"OBJECT_NAME":"STARLINK-32840","OBJECT_ID":"2025-063A","EPOCH":"2026-03-09T07:45:01.816416","MEAN_MOTION":15.3022266,"ECCENTRICITY":9.722e-5,"INCLINATION":53.1597,"RA_OF_ASC_NODE":51.3178,"ARG_OF_PERICENTER":110.3266,"MEAN_ANOMALY":249.7839,"EPHEMERIS_TYPE":0,"CLASSIFICATION_TYPE":"U","NORAD_CAT_ID":63363,"ELEMENT_SET_NO":999,"REV_AT_EPOCH":5472,"BSTAR":0.0011441373,"MEAN_MOTION_DOT":0.00033704,"MEAN_MOTION_DDOT":0}]
